start=new Date('2022-09-15T00:00:00.000Z').valueOf();
sats=[{"INCLINATION":"53.0540","ECCENTRICITY":"0.00013720","SITE":"AFETR","TLE_LINE1":"1 47573U 21009AB  22257.50991626 -.00000834  00000-0 -37106-4 0  9992","GP_ID":"212581680","PERIAPSIS":"546.287","BSTAR":"-0.00003710600000","MEAN_MOTION_DOT":"-0.00000834","MEAN_MOTION_DDOT":"0.0000000000000","OBJECT_NAME":"STARLINK-1975","ELEMENT_SET_NO":"999","RA_OF_ASC_NODE":"322.6584","ARG_OF_PERICENTER":"85.7720","REV_AT_EPOCH":"8918","REF_FRAME":"TEME","DECAY_DATE":null,"RCS_SIZE":"LARGE","MEAN_ELEMENT_THEORY":"SGP4","FILE":"3574027","EPOCH":"2022-09-14T12:14:16.764864","CLASSIFICATION_TYPE":"U","COUNTRY_CODE":"US","EPHEMERIS_TYPE":"0","SEMIMAJOR_AXIS":"6925.372","OBJECT_ID":"2021-009AB","TIME_SYSTEM":"UTC","TLE_LINE2":"2 47573  53.0540 322.6584 0001372  85.7720 274.3426 15.06392283 89180","OBJECT_TYPE":"PAYLOAD","LAUNCH_DATE":"2021-02-04","NORAD_CAT_ID":"47573","MEAN_ANOMALY":"274.3426","PERIOD":"95.593","MEAN_MOTION":"15.06392283","CENTER_NAME":"EARTH","APOAPSIS":"548.187"},{"MEAN_MOTION":"15.06390364","PERIOD":"95.593","CENTER_NAME":"EARTH","APOAPSIS":"548.211","MEAN_ANOMALY":"280.7343","OBJECT_TYPE":"PAYLOAD","NORAD_CAT_ID":"47574","LAUNCH_DATE":"2021-02-04","TIME_SYSTEM":"UTC","TLE_LINE2":"2 47574  53.0555 352.5883 0001398  79.3803 280.7343 15.06390364 88760","OBJECT_ID":"2021-009AC","SEMIMAJOR_AXIS":"6925.378","CLASSIFICATION_TYPE":"U","COUNTRY_CODE":"US","EPHEMERIS_TYPE":"0","RCS_SIZE":"LARGE","REF_FRAME":"TEME","DECAY_DATE":null,"EPOCH":"2022-09-14T12:36:50.308128","MEAN_ELEMENT_THEORY":"SGP4","FILE":"3574027","RA_OF_ASC_NODE":"352.5883","ARG_OF_PERICENTER":"79.3803","REV_AT_EPOCH":"8876","OBJECT_NAME":"STARLINK-1976","ELEMENT_SET_NO":"999","MEAN_MOTION_DDOT":"0.0000000000000","GP_ID":"212581431","PERIAPSIS":"546.275","MEAN_MOTION_DOT":"-0.00001490","BSTAR":"-0.00008115100000","ECCENTRICITY":"0.00013980","TLE_LINE1":"1 47574U 21009AC  22257.52558227 -.00001490  00000-0 -81151-4 0  9999","SITE":"AFETR","INCLINATION":"53.0555"},{"MEAN_MOTION":"15.06393741","PERIOD":"95.593","APOAPSIS":"548.178","CENTER_NAME":"EARTH","MEAN_ANOMALY":"286.6748","OBJECT_TYPE":"PAYLOAD","NORAD_CAT_ID":"47575","LAUNCH_DATE":"2021-02-04","TIME_SYSTEM":"UTC","TLE_LINE2":"2 47575  53.0555 352.0466 0001365  73.4390 286.6748 15.06393741 88781","SEMIMAJOR_AXIS":"6925.368","OBJECT_ID":"2021-009AD","CLASSIFICATION_TYPE":"U","COUNTRY_CODE":"US","EPHEMERIS_TYPE":"0","RCS_SIZE":"LARGE","DECAY_DATE":null,"REF_FRAME":"TEME","EPOCH":"2022-09-14T15:31:59.366496","MEAN_ELEMENT_THEORY":"SGP4","FILE":"3574287","REV_AT_EPOCH":"8878","RA_OF_ASC_NODE":"352.0466","ARG_OF_PERICENTER":"73.4390","OBJECT_NAME":"STARLINK-1977","ELEMENT_SET_NO":"999","MEAN_MOTION_DDOT":"0.0000000000000","GP_ID":"212610847","PERIAPSIS":"546.287","MEAN_MOTION_DOT":"0.00000205","BSTAR":"0.00003267700000","ECCENTRICITY":"0.00013650","TLE_LINE1":"1 47575U 21009AD  22257.64721489  .00000205  00000-0  32677-4 0  9995","SITE":"AFETR","INCLINATION":"53.0555"},{"MEAN_ANOMALY":"278.8992","NORAD_CAT_ID":"47576","LAUNCH_DATE":"2021-02-04","OBJECT_TYPE":"PAYLOAD","CENTER_NAME":"EARTH","APOAPSIS":"548.239","MEAN_MOTION":"15.06399158","PERIOD":"95.592","TLE_LINE2":"2 47576  53.0555 312.7994 0001477  81.2164 278.8992 15.06399158 89324","TIME_SYSTEM":"UTC","OBJECT_ID":"2021-009AE","SEMIMAJOR_AXIS":"6925.351","RA_OF_ASC_NODE":"312.7994","REV_AT_EPOCH":"8932","ARG_OF_PERICENTER":"81.2164","ELEMENT_SET_NO":"999","OBJECT_NAME":"STARLINK-1978","EPHEMERIS_TYPE":"0","COUNTRY_CODE":"US","CLASSIFICATION_TYPE":"U","EPOCH":"2022-09-14T11:33:07.849440","MEAN_ELEMENT_THEORY":"SGP4","FILE":"3574027","RCS_SIZE":"LARGE","REF_FRAME":"TEME","DECAY_DATE":null,"TLE_LINE1":"1 47576U 21009AE  22257.48134085  .00000504  00000-0  52756-4 0  9990","SITE":"AFETR","ECCENTRICITY":"0.00014770","INCLINATION":"53.0555","MEAN_MOTION_DDOT":"0.0000000000000","MEAN_MOTION_DOT":"0.00000504","BSTAR":"0.00005275600000","PERIAPSIS":"546.193","GP_ID":"212580929"},{"RCS_SIZE":"LARGE","DECAY_DATE":null,"REF_FRAME":"TEME","EPOCH":"2022-09-14T14:07:43.599648","FILE":"3574287","MEAN_ELEMENT_THEORY":"SGP4","CLASSIFICATION_TYPE":"U","EPHEMERIS_TYPE":"0","COUNTRY_CODE":"US","OBJECT_NAME":"STARLINK-1979","ELEMENT_SET_NO":"999","RA_OF_ASC_NODE":"327.3096","ARG_OF_PERICENTER":"78.6921","REV_AT_EPOCH":"8913","PERIAPSIS":"546.302","GP_ID":"212612345","MEAN_MOTION_DOT":"-0.00000401","BSTAR":"-0.00000800180000","MEAN_MOTION_DDOT":"0.0000000000000","INCLINATION":"53.0568","ECCENTRICITY":"0.00013430","TLE_LINE1":"1 47577U 21009AF  22257.58869907 -.00000401  00000-0 -80018-5 0  9991","SITE":"AFETR","MEAN_MOTION":"15.06394052","PERIOD":"95.593","CENTER_NAME":"EARTH","APOAPSIS":"548.162","OBJECT_TYPE":"PAYLOAD","NORAD_CAT_ID":"47577","LAUNCH_DATE":"2021-02-04","MEAN_ANOMALY":"281.4219","SEMIMAJOR_AXIS":"6925.367","OBJECT_ID":"2021-009AF","TIME_SYSTEM":"UTC","TLE_LINE2":"2 47577  53.0568 327.3096 0001343  78.6921 281.4219 15.06394052 89136"},{"MEAN_MOTION":"15.06398258","PERIOD":"95.592","APOAPSIS":"548.189","CENTER_NAME":"EARTH","MEAN_ANOMALY":"276.2013","OBJECT_TYPE":"PAYLOAD","NORAD_CAT_ID":"47578","LAUNCH_DATE":"2021-02-04","TIME_SYSTEM":"UTC","TLE_LINE2":"2 47578  53.0542 332.6398 0001401  83.9136 276.2013 15.06398258 89041","SEMIMAJOR_AXIS":"6925.354","OBJECT_ID":"2021-009AG","CLASSIFICATION_TYPE":"U","EPHEMERIS_TYPE":"0","COUNTRY_CODE":"US","RCS_SIZE":"LARGE","REF_FRAME":"TEME","DECAY_DATE":null,"EPOCH":"2022-09-14T12:23:33.637920","FILE":"3574027","MEAN_ELEMENT_THEORY":"SGP4","ARG_OF_PERICENTER":"83.9136","RA_OF_ASC_NODE":"332.6398","REV_AT_EPOCH":"8904","OBJECT_NAME":"STARLINK-1980","ELEMENT_SET_NO":"999","MEAN_MOTION_DDOT":"0.0000000000000","GP_ID":"212581931","PERIAPSIS":"546.249","MEAN_MOTION_DOT":"0.00004726","BSTAR":"0.00033595000000","ECCENTRICITY":"0.00014010","TLE_LINE1":"1 47578U 21009AG  22257.51636155  .00004726  00000-0  33595-3 0  9990","SITE":"AFETR","INCLINATION":"53.0542"},{"MEAN_MOTION_DDOT":"0.0000000000000","BSTAR":"0.00002982800000","MEAN_MOTION_DOT":"0.00000163","GP_ID":"212611347","PERIAPSIS":"546.182","SITE":"AFETR","TLE_LINE1":"1 47579U 21009AH  22257.56520570  .00000163  00000-0  29828-4 0  9995","ECCENTRICITY":"0.00015480","INCLINATION":"53.0552","EPHEMERIS_TYPE":"0","COUNTRY_CODE":"US","CLASSIFICATION_TYPE":"U","FILE":"3574287","MEAN_ELEMENT_THEORY":"SGP4","EPOCH":"2022-09-14T13:33:53.772480","REF_FRAME":"TEME","DECAY_DATE":null,"RCS_SIZE":"LARGE","ARG_OF_PERICENTER":"64.4677","RA_OF_ASC_NODE":"322.4178","REV_AT_EPOCH":"8919","ELEMENT_SET_NO":"999","OBJECT_NAME":"STARLINK-1981","TLE_LINE2":"2 47579  53.0552 322.4178 0001548  64.4677 295.6472 15.06386673 89190","TIME_SYSTEM":"UTC","OBJECT_ID":"2021-009AH","SEMIMAJOR_AXIS":"6925.389","CENTER_NAME":"EARTH","APOAPSIS":"548.326","PERIOD":"95.593","MEAN_MOTION":"15.06386673","MEAN_ANOMALY":"295.6472","LAUNCH_DATE":"2021-02-04","NORAD_CAT_ID":"47579","OBJECT_TYPE":"PAYLOAD"},{"TLE_LINE2":"2 47580  53.0534 332.6141 0001479  72.4730 287.6420 15.06385872 89045","TIME_SYSTEM":"UTC","OBJECT_ID":"2021-009AJ","SEMIMAJOR_AXIS":"6925.392","MEAN_ANOMALY":"287.6420","OBJECT_TYPE":"PAYLOAD","LAUNCH_DATE":"2021-02-04","NORAD_CAT_ID":"47580","PERIOD":"95.593","MEAN_MOTION":"15.06385872","CENTER_NAME":"EARTH","APOAPSIS":"548.281","ECCENTRICITY":"0.00014790","SITE":"AFETR","TLE_LINE1":"1 47580U 21009AJ  22257.52005081 -.00000973  00000-0 -46470-4 0  9991","INCLINATION":"53.0534","MEAN_MOTION_DDOT":"0.0000000000000","PERIAPSIS":"546.233","GP_ID":"212580430","BSTAR":"-0.00004647000000","MEAN_MOTION_DOT":"-0.00000973","ARG_OF_PERICENTER":"72.4730","RA_OF_ASC_NODE":"332.6141","REV_AT_EPOCH":"8904","OBJECT_NAME":"STARLINK-1982","ELEMENT_SET_NO":"999","CLASSIFICATION_TYPE":"U","EPHEMERIS_TYPE":"0","COUNTRY_CODE":"US","REF_FRAME":"TEME","DECAY_DATE":null,"RCS_SIZE":"LARGE","MEAN_ELEMENT_THEORY":"SGP4","FILE":"3574027","EPOCH":"2022-09-14T12:28:52.389984"},{"INCLINATION":"53.0549","ECCENTRICITY":"0.00012790","SITE":"AFETR","TLE_LINE1":"1 47581U 21009AK  22257.43342668 -.00000543  00000-0 -17559-4 0  9996","PERIAPSIS":"546.338","GP_ID":"212581681","BSTAR":"-0.00001755900000","MEAN_MOTION_DOT":"-0.00000543","MEAN_MOTION_DDOT":"0.0000000000000","OBJECT_NAME":"STARLINK-1984","ELEMENT_SET_NO":"999","ARG_OF_PERICENTER":"96.3977","RA_OF_ASC_NODE":"313.0030","REV_AT_EPOCH":"8931","REF_FRAME":"TEME","DECAY_DATE":null,"RCS_SIZE":"LARGE","MEAN_ELEMENT_THEORY":"SGP4","FILE":"3574027","EPOCH":"2022-09-14T10:24:08.065152","CLASSIFICATION_TYPE":"U","COUNTRY_CODE":"US","EPHEMERIS_TYPE":"0","OBJECT_ID":"2021-009AK","SEMIMAJOR_AXIS":"6925.359","TIME_SYSTEM":"UTC","TLE_LINE2":"2 47581  53.0549 313.0030 0001279  96.3977 263.7158 15.06396699 89310","OBJECT_TYPE":"PAYLOAD","LAUNCH_DATE":"2021-02-04","NORAD_CAT_ID":"47581","MEAN_ANOMALY":"263.7158","PERIOD":"95.592","MEAN_MOTION":"15.06396699","CENTER_NAME":"EARTH","APOAPSIS":"548.109"},{"CENTER_NAME":"EARTH","APOAPSIS":"548.253","PERIOD":"95.593","MEAN_MOTION":"15.06393578","MEAN_ANOMALY":"292.8568","LAUNCH_DATE":"2021-02-04","NORAD_CAT_ID":"47582","OBJECT_TYPE":"PAYLOAD","TIME_SYSTEM":"UTC","TLE_LINE2":"2 47582  53.0536 332.1798 0001472  67.2576 292.8568 15.06393578 89060","SEMIMAJOR_AXIS":"6925.368","OBJECT_ID":"2021-009AL","EPHEMERIS_TYPE":"0","COUNTRY_CODE":"US","CLASSIFICATION_TYPE":"U","FILE":"3574287","MEAN_ELEMENT_THEORY":"SGP4","EPOCH":"2022-09-14T14:52:10.601760","REF_FRAME":"TEME","DECAY_DATE":null,"RCS_SIZE":"LARGE","RA_OF_ASC_NODE":"332.1798","REV_AT_EPOCH":"8906","ARG_OF_PERICENTER":"67.2576","ELEMENT_SET_NO":"999","OBJECT_NAME":"STARLINK-1986","MEAN_MOTION_DDOT":"0.0000000000000","BSTAR":"0.00001620000000","MEAN_MOTION_DOT":"-0.00000040","GP_ID":"212612088","PERIAPSIS":"546.214","SITE":"AFETR","TLE_LINE1":"1 47582U 21009AL  22257.61956715 -.00000040  00000-0  16200-4 0  9994","ECCENTRICITY":"0.00014720","INCLINATION":"53.0536"}];
